STARLINK-31679          
1 59519U 24073J   24129.58334491 -.01680920  00000+0 -28093-1 0  9990
2 59519  42.9998 178.7972 0001232 275.8515   2.9685 15.54182713  4498
STARLINK-31370          
1 59520U 24073K   24129.58334491 -.01449741  00000+0 -26457-1 0  9998
2 59520  42.9998 178.8141 0001070 271.7499 359.8755 15.51827325  4422
STARLINK-31404          
1 59521U 24073L   24129.58334491 -.01680898  00000+0 -28389-1 0  9995
2 59521  42.9996 178.6053 0001425 275.7001  80.1603 15.53896391  4481
STARLINK-31453          
1 59522U 24073M   24129.58334491 -.01681319  00000+0 -28108-1 0  9994
2 59522  42.9998 178.7884 0001285 271.9966  10.6833 15.54174954  4421
STARLINK-31476          
1 59523U 24073N   24129.58334491 -.01680070  00000+0 -28089-1 0  9996
2 59523  42.9999 178.7834 0001348 274.0799  10.5298 15.54170260  4426
STARLINK-31376          
1 59524U 24073P   24129.58334491 -.01680970  00000+0 -28110-1 0  9991
2 59524  42.9997 178.7782 0001237 270.0435  16.4953 15.54167163  4484
STARLINK-31538          
1 59525U 24073Q   24129.58334491 -.01680395  00000+0 -28111-1 0  9994
2 59525  42.9998 178.7636 0001330 270.6624  21.6655 15.54155048  4424
STARLINK-31564          
1 59526U 24073R   24129.58334491 -.01680610  00000+0 -28111-1 0  9995
2 59526  42.9999 178.7682 0001319 274.8555  15.5427 15.54159010  4492
STARLINK-31452          
1 59527U 24073S   24129.58334491 -.01679386  00000+0 -28084-1 0  9993
2 59527  42.9998 178.7729 0001378 269.7560  18.7130 15.54162495  4428
STARLINK-31618          
1 59528U 24073T   24129.58334491 -.01680412  00000+0 -28115-1 0  9991
2 59528  42.9999 178.7585 0001377 273.2512  21.0064 15.54151074  4509
STARLINK-31513          
1 59529U 24073U   24129.58334491 -.01681158  00000+0 -28133-1 0  9990
2 59529  42.9998 178.7540 0001311 274.8481  21.3385 15.54147741  4493
STARLINK-31392          
1 59530U 24073V   24129.58334491 -.01681431  00000+0 -28146-1 0  9990
2 59530  42.9999 178.7442 0001300 273.4109  26.6346 15.54140230  4500
STARLINK-31619          
1 59531U 24073W   24129.58334491 -.01681755  00000+0 -28148-1 0  9992
2 59531  42.9999 178.7492 0001273 276.1294  21.9865 15.54144372  4392
STARLINK-31624          
1 59532U 24073X   24129.58334491 -.01666258  00000+0 -15650-1 0  9998
2 59532  42.9992 177.2019 0001408 278.7059 278.8546 15.69330492  4476
STARLINK-31509          
1 59533U 24073Y   24129.58334491 -.01670641  00000+0 -23134-1 0  9996
2 59533  42.9997 178.6692 0001016 254.0262  77.6578 15.59162343  4536
STARLINK-31734          
1 59534U 24074A   24129.58334491 -.01679201  00000+0 -18820-1 0  9995
2 59534  42.9999 204.1130 0001442 275.2283  39.6283 15.65059694  4310
STARLINK-31738          
1 59535U 24074B   24129.58334491 -.01684888  00000+0 -18897-1 0  9997
2 59535  42.9999 204.1030 0001262 276.7191  42.0733 15.65055712  4319
STARLINK-31721          
1 59536U 24074C   24129.58334491 -.01684110  00000+0 -18958-1 0  9994
2 59536  42.9999 204.0947 0001329 276.0815  45.9250 15.64962156  4286
STARLINK-31737          
1 59537U 24074D   24129.58334491 -.01683744  00000+0 -18880-1 0  9991
2 59537  43.0000 204.1081 0001303 277.6145  39.2122 15.65058427  4313
STARLINK-31725          
1 59538U 24074E   24129.58334491 -.00696438  15760-3 -19491-2 0  9998
2 59538  42.9958 201.4217 0002613 263.7898  39.3162 15.92647457  4313
STARLINK-31539          
1 59539U 24074F   24129.58334491 -.01682682  00000+0 -18945-1 0  9995
2 59539  42.9998 204.0845 0001512 281.3848  44.5614 15.64953278  4211
STARLINK-31397          
1 59540U 24074G   24129.58334491 -.01684488  00000+0 -18966-1 0  9996
2 59540  42.9999 204.0897 0001307 277.6747  46.3047 15.64958260  4282
STARLINK-31481          
1 59541U 24074H   24129.58334491 -.01684262  00000+0 -18969-1 0  9990
2 59541  43.0000 204.0798 0001305 278.5225  49.3944 15.64950577  4313
STARLINK-31540          
1 59542U 24074J   24129.58334491 -.01684065  00000+0 -18969-1 0  9992
2 59542  43.0000 204.0747 0001396 276.5883  53.3008 15.64946315  4317
STARLINK-31574          
1 59543U 24074K   24129.58334491 -.01684220  00000+0 -18974-1 0  9992
2 59543  43.0000 204.0697 0001365 278.8772  52.9801 15.64942703  4313
STARLINK-31556          
1 59544U 24074L   24129.58334491 -.01684396  00000+0 -18980-1 0  9994
2 59544  43.0000 204.0596 0001601 278.5908  57.2037 15.64935251  4312
STARLINK-31582          
1 59545U 24074M   24129.58334491 -.01684823  00000+0 -18985-1 0  9995
2 59545  43.0000 204.0645 0001297 279.9310  53.8978 15.64939150  4319
STARLINK-31519          
1 59546U 24074N   24129.58334491 -.01683105  00000+0 -18969-1 0  9990
2 59546  43.0000 204.0543 0001407 281.9524  55.8165 15.64930116  4289
STARLINK-31736          
1 59547U 24074P   24129.58334491 -.01686023  00000+0 -19009-1 0  9999
2 59547  42.9998 204.0491 0001272 279.1743  60.5669 15.64928176  4216
STARLINK-31675          
1 59548U 24074Q   24129.58334491 -.01685811  00000+0 -19009-1 0  9994
2 59548  42.9999 204.0441 0001295 278.6742  63.0327 15.64924390  4281
STARLINK-31722          
1 59549U 24074R   24129.58334491 -.01683970  00000+0 -18987-1 0  9993
2 59549  42.9997 204.0386 0001575 287.7754  55.9019 15.64919255  4230
STARLINK-31741          
1 59550U 24074S   24129.58334491 -.01683282  00000+0 -18983-1 0  9997
2 59550  42.9995 204.0338 0001434 281.2915  64.3592 15.64914496  4174
STARLINK-31699          
1 59551U 24074T   24129.58334491 -.01683128  00000+0 -18984-1 0  9998
2 59551  42.9996 204.0284 0001419 284.2148  63.4020 15.64910768  4310
STARLINK-31750          
1 59552U 24074U   24129.58334491 -.01682711  00000+0 -18984-1 0  9996
2 59552  42.9994 204.0188 0001509 283.6176  67.9387 15.64902810  4376
STARLINK-31723          
1 59553U 24074V   24129.58334491 -.01684955  00000+0 -19010-1 0  9990
2 59553  42.9994 204.0241 0001346 280.3374  69.2485 15.64908211  4319
STARLINK-31724          
1 59554U 24074W   24129.58334491 -.01684863  00000+0 -19015-1 0  9994
2 59554  42.9996 204.0138 0001349 281.6128  71.9176 15.64900128  4182
STARLINK-31730          
1 59555U 24074X   24129.58334491 -.01685006  00000+0 -19022-1 0  9993
2 59555  42.9993 204.0038 0001400 280.5113  76.9524 15.64892832  4318
STARLINK-31718          
1 59556U 24074Y   24129.58334491 -.01683408  00000+0 -18999-1 0  9990
2 59556  42.9996 204.0090 0001457 288.0190  67.4794 15.64895465  4319
2024-075A               
1 59557U 24075A   24128.31703913 -.00000037  00000+0  00000+0 0  9992
2 59557  34.9930  77.6389 0004427  28.5685 109.1407 15.22771428  2498
2024-075B               
1 59558U 24075B   24129.22387036 -.00000054  00000+0  00000+0 0  9997
2 59558  35.0862  70.1427 0076834 159.7895 344.3218 15.36103418  2651
1998-067WJ              
1 59559U 98067WJ  24129.47902067  .00060245  00000+0  90946-3 0  9993
2 59559  51.6349 151.9564 0004895  74.5072 285.6459 15.54147220  3154
1998-067WK              
1 59560U 98067WK  24129.33934212  .00096865  00000+0  13660-2 0  9991
2 59560  51.6348 152.5235 0007093  83.5919 276.5880 15.55783809  3067
1998-067WL              
1 59561U 98067WL  24129.36273423  .00031623  00000+0  51054-3 0  9996
2 59561  51.6357 152.6792 0002780  98.5651 261.5654 15.52592728  3107
BURSTCUBE               
1 59562U 98067WM  24129.35205629  .00055316  00000+0  83884-3 0  9990
2 59562  51.6349 152.6075 0002634 116.6797 243.4464 15.54067391  3118
1998-067WN              
1 59563U 98067WN  24129.35552949  .00044350  00000+0  68584-3 0  9997
2 59563  51.6355 152.6317 0003116 126.2849 233.8430 15.53623308  3117
STARLINK-31747          
1 59564U 24076A   24129.58334491 -.00143361  00000+0 -99459-3 0  9991
2 59564  43.0000 233.5405 0001563 289.5537 155.1188 15.73890832  3541
STARLINK-31388          
1 59565U 24076B   24129.58334491 -.00098136  00000+0 -67762-3 0  9993
2 59565  43.0001 233.5351 0001045 268.3401 178.3583 15.73843350  3542
STARLINK-31332          
1 59566U 24076C   24129.58334491 -.00048293  00000+0 -33007-3 0  9998
2 59566  43.0002 233.5248 0001805 282.6444 168.0772 15.73825816  3553
STARLINK-31689          
1 59567U 24076D   24129.58334491 -.00036608  00000+0 -24910-3 0  9999
2 59567  43.0000 233.5301 0001170 269.2153 179.4961 15.73825451  3545
STARLINK-31471          
1 59568U 24076E   24129.58334491 -.00052972  00000+0 -36254-3 0  9996
2 59568  43.0001 233.5198 0001481 269.0724 183.6505 15.73828405  3383
STARLINK-31470          
1 59569U 24076F   24129.58334491 -.00009884  00000+0 -64743-4 0  9996
2 59569  43.0000 233.5147 0001395 274.3972 180.3389 15.73806173  3387
STARLINK-31587          
1 59570U 24076G   24129.58334491  .00000574  00000+0  71557-5 0  9995
2 59570  43.0000 233.5098 0001056 278.0180 178.7258 15.73798941  3547
STARLINK-31606          
1 59571U 24076H   24129.58334491  .00001455  00000+0  13217-4 0  9993
2 59571  43.0000 233.5047 0001688 264.4079 194.3410 15.73797479  3379
STARLINK-31666          
1 59572U 24076J   24129.58334491 -.00126002  00000+0 -87296-3 0  9999
2 59572  42.9998 233.4994 0001658 276.4713 184.2666 15.73864283  3547
STARLINK-31683          
1 59573U 24076K   24129.58334491  .00140035  00000+0  95202-3 0  9996
2 59573  43.0002 233.4962 0001678 288.4156 174.3335 15.73733063  3541
STARLINK-31751          
1 59574U 24076L   24129.58334491  .00107528  00000+0  73389-3 0  9999
2 59574  42.9998 233.4842 0001404 247.3625 219.3806 15.73756051  3548
STARLINK-31510          
1 59575U 24076M   24129.58334491  .00023662  00000+0  16537-3 0  9998
2 59575  43.0001 233.4898 0001526 269.8373 194.9170 15.73792083  3548
STARLINK-31663          
1 59576U 24076N   24129.58334491  .00186787  00000+0  12624-2 0  9999
2 59576  42.9998 233.4739 0002087 275.8852 194.8481 15.73720002  3544
STARLINK-31692          
1 59577U 24076P   24129.58334491 -.00026250  00000+0 -17750-3 0  9996
2 59577  42.9997 233.4789 0001608 259.6904 209.0596 15.73822673  3548
STARLINK-31685          
1 59578U 24076Q   24129.58334491  .00123094  00000+0  83828-3 0  9998
2 59578  42.9997 233.4685 0001671 273.1033 199.6394 15.73751068  3558
